H1 CPF 01  gfz 2022 09 10 00  7531 tandemx   
H2 1003001  6202 36605    2022 09 10 00 59 42 2022 09 15 00 00 42   120 1 1  0 0 0
H9
10 0 59834  79182.000000  0     632121.009  -2698756.564   6295716.563
10 0 59834  79302.000000  0     143952.143  -1974644.850   6587119.810
10 0 59834  79422.000000  0    -333678.504  -1207622.757   6762761.398
10 0 59834  79542.000000  0    -791806.378   -411341.703   6819573.629
10 0 59834  79662.000000  0   -1222052.906    399889.858   6756564.100
10 0 59834  79782.000000  0   -1616778.249   1211363.297   6574831.632
10 0 59834  79902.000000  0   -1969216.714   2008235.618   6277548.152
10 0 59834  80022.000000  0   -2273593.450   2775800.398   5869906.882
10 0 59834  80142.000000  0   -2525219.920   3499760.105   5359036.848
10 0 59834  80262.000000  0   -2720567.583   4166495.055   4753885.125
10 0 59834  80382.000000  0   -2857318.559   4763325.171   4065066.104
10 0 59834  80502.000000  0   -2934390.973   5278758.443   3304679.245
10 0 59834  80622.000000  0   -2951938.420   5702720.297   2486097.395
10 0 59834  80742.000000  0   -2911323.643   6026757.806   1623730.021
10 0 59834  80862.000000  0   -2815066.868   6244214.558    732765.592
10 0 59834  80982.000000  0   -2666769.434   6350371.903   -171102.270
10 0 59834  81102.000000  0   -2471015.336   6342552.381  -1071959.753
10 0 59834  81222.000000  0   -2233252.818   6220182.117  -1953964.051
10 0 59834  81342.000000  0   -1959656.884   5984806.666  -2801632.345
10 0 59834  81462.000000  0   -1656978.824   5640064.394  -3600117.035
10 0 59834  81582.000000  0   -1332388.081   5191621.011  -4335466.958
10 0 59834  81702.000000  0    -993309.244   4647064.450  -4994868.896
10 0 59834  81822.000000  0    -647258.367   4015765.879  -5566864.604
10 0 59834  81942.000000  0    -301681.554   3308709.148  -6041542.440
10 0 59834  82062.000000  0      36200.712   2538291.261  -6410699.170
10 0 59834  82182.000000  0     359539.329   1718100.336  -6667969.278
10 0 59834  82302.000000  0     661990.294    862676.365  -6808924.698
10 0 59834  82422.000000  0     937835.183    -12743.913  -6831143.033
10 0 59834  82542.000000  0    1182085.861   -892493.581  -6734244.289
10 0 59834  82662.000000  0    1390571.909  -1760749.255  -6519895.017
10 0 59834  82782.000000  0    1560010.273  -2601807.461  -6191782.711
10 0 59834  82902.000000  0    1688057.066  -3400362.426  -5755560.782
10 0 59834  83022.000000  0    1773339.315  -4141783.599  -5218762.192
10 0 59834  83142.000000  0    1815466.543  -4812385.005  -4590678.867
10 0 59834  83262.000000  0    1815022.330  -5399680.666  -3882211.897
10 0 59834  83382.000000  0    1773535.224  -5892625.316  -3105692.930
10 0 59834  83502.000000  0    1693428.411  -6281832.953  -2274676.451
10 0 59834  83622.000000  0    1577950.311  -6559766.890  -1403705.987
10 0 59834  83742.000000  0    1431087.086  -6720896.723   -508059.477
10 0 59834  83862.000000  0    1257458.264  -6761819.041    396523.497
10 0 59834  83982.000000  0    1062199.191  -6681334.191   1294124.988
10 0 59834  84102.000000  0     850831.268  -6480481.441   2168937.589
10 0 59834  84222.000000  0     629125.680  -6162526.741   3005553.196
10 0 59834  84342.000000  0     402961.506  -5732904.696   3789242.314
10 0 59834  84462.000000  0     178183.144  -5199118.309   4506217.879
10 0 59834  84582.000000  0     -39538.649  -4570599.279   5143880.495
10 0 59834  84702.000000  0    -244839.374  -3858531.112   5691039.566
10 0 59834  84822.000000  0    -432783.311  -3075640.292   6138107.419
10 0 59834  84942.000000  0    -598974.206  -2235959.376   6477261.345
10 0 59834  85062.000000  0    -739651.734  -1354570.912   6702572.713
10 0 59834  85182.000000  0    -851771.882   -447334.766   6810105.670
10 0 59834  85302.000000  0    -933070.430    469398.599   6797982.675
10 0 59834  85422.000000  0    -982107.756   1379082.909   6666415.132
10 0 59834  85542.000000  0    -998293.864   2265274.178   6417699.708
10 0 59834  85662.000000  0    -981894.174   3111927.568   6056180.785
10 0 59834  85782.000000  0    -934016.242   3903689.100   5588179.341
10 0 59834  85902.000000  0    -856576.682   4626177.134   5021887.781
10 0 59834  86022.000000  0    -752249.708   5266249.396   4367233.195
10 0 59834  86142.000000  0    -624397.709   5812250.645   3635707.031
10 0 59834  86262.000000  0    -476985.179   6254232.500   2840167.446
10 0 59834  86382.000000  0    -314479.387   6584148.230   1994614.377
10 0 59835    102.000000  0    -141736.412   6796008.365   1113937.109
10 0 59835    222.000000  0      36122.633   6885995.613    213646.477
10 0 59835    342.000000  0     213841.727   6852537.954   -690405.851
10 0 59835    462.000000  0     386164.043   6696336.175  -1582316.426
10 0 59835    582.000000  0     547964.250   6420343.593  -2446418.323
10 0 59835    702.000000  0     694376.833   6029702.103  -3267561.994
10 0 59835    822.000000  0     820918.375   5531636.258  -4031384.221
10 0 59835    942.000000  0     923600.181   4935307.528  -4724559.631
10 0 59835   1062.000000  0     999028.696   4251633.223  -5335029.403
10 0 59835   1182.000000  0    1044491.471   3493075.692  -5852203.541
10 0 59835   1302.000000  0    1058026.448   2673406.848  -6267135.234
10 0 59835   1422.000000  0    1038474.069   1807452.525  -6572663.890
10 0 59835   1542.000000  0     985511.182    910824.221  -6763526.997
10 0 59835   1662.000000  0     899666.386      -359.513  -6836442.130
10 0 59835   1782.000000  0     782317.010   -909757.982  -6790156.978
10 0 59835   1902.000000  0     635666.946  -1801094.599  -6625466.896
10 0 59835   2022.000000  0     462706.943  -2658439.287  -6345202.253
10 0 59835   2142.000000  0     267156.960  -3466487.320  -5954187.698
10 0 59835   2262.000000  0      53390.753  -4210830.850  -5459167.362
10 0 59835   2382.000000  0    -173654.467  -4878215.727  -4868698.994
10 0 59835   2502.000000  0    -408583.532  -5456782.060  -4193017.934
10 0 59835   2622.000000  0    -645662.044  -5936283.510  -3443870.194
10 0 59835   2742.000000  0    -878945.688  -6308279.558  -2634316.245
10 0 59835   2862.000000  0   -1102417.721  -6566296.655  -1778508.797
10 0 59835   2982.000000  0   -1310131.347  -6705954.332   -891446.212
10 0 59835   3102.000000  0   -1496353.345  -6725050.640     11293.678
10 0 59835   3222.000000  0   -1655705.565  -6623604.601    913833.122
10 0 59835   3342.000000  0   -1783300.935  -6403854.439   1800281.742
10 0 59835   3462.000000  0   -1874869.949  -6070210.817   2655025.642
10 0 59835   3582.000000  0   -1926873.977  -5629165.607   3463011.374
10 0 59835   3702.000000  0   -1936602.462  -5089159.070   4210017.721
10 0 59835   3822.000000  0   -1902251.487  -4460409.974   4882909.472
10 0 59835   3942.000000  0   -1822983.236  -3754713.820   5469869.325
10 0 59835   4062.000000  0   -1698964.340  -2985211.778   5960604.741
10 0 59835   4182.000000  0   -1531381.096  -2166137.119   6346523.215
10 0 59835   4302.000000  0   -1322432.720  -1312547.273   6620876.259
10 0 59835   4422.000000  0   -1075303.914   -440043.720   6778871.998
10 0 59835   4542.000000  0    -794117.075    435514.725   6817752.800
10 0 59835   4662.000000  0    -483863.679   1298299.207   6736840.773
10 0 59835   4782.000000  0    -150315.471   2132796.770   6537549.213
10 0 59835   4902.000000  0     200082.708   2924089.118   6223359.207
10 0 59835   5022.000000  0     560336.191   3658119.569   5799762.509
10 0 59835   5142.000000  0     923037.949   4321945.714   5274171.134
10 0 59835   5262.000000  0    1280518.664   4903972.474   4655793.584
10 0 59835   5382.000000  0    1625006.375   5394161.751   3955478.348
10 0 59835   5502.000000  0    1948792.329   5784213.245   3185529.035
10 0 59835   5622.000000  0    2244401.655   6067716.113   2359489.961
10 0 59835   5742.000000  0    2504760.929   6240262.945   1491904.074
10 0 59835   5862.000000  0    2723361.399   6299523.562    598050.819
10 0 59835   5982.000000  0    2894411.153   6245275.787   -306330.402
10 0 59835   6102.000000  0    3012974.561   6079395.130  -1205325.152
10 0 59835   6222.000000  0    3075095.075   5805801.935  -2083132.168
10 0 59835   6342.000000  0    3077897.849   5430368.408  -2924348.152
10 0 59835   6462.000000  0    3019669.930   4960786.992  -3714243.892
10 0 59835   6582.000000  0    2899915.203   4406403.541  -4439023.869
10 0 59835   6702.000000  0    2719383.799   3778022.370  -5086064.680
10 0 59835   6822.000000  0    2480076.044   3087687.461  -5644128.802
10 0 59835   6942.000000  0    2185222.114   2348445.202  -6103551.203
10 0 59835   7062.000000  0    1839236.680   1574093.591  -6456395.754
10 0 59835   7182.000000  0    1447651.425    778924.276  -6696580.016
10 0 59835   7302.000000  0    1017026.727    -22538.162  -6819970.198
10 0 59835   7422.000000  0     554841.664   -815796.967  -6824445.242
10 0 59835   7542.000000  0      69365.917  -1586639.572  -6709927.629
10 0 59835   7662.000000  0    -430483.860  -2321384.506  -6478384.049
10 0 59835   7782.000000  0    -935303.463  -3007118.904  -6133797.182
10 0 59835   7902.000000  0   -1435373.631  -3631923.201  -5682104.031
10 0 59835   8022.000000  0   -1920842.310  -4185077.608  -5131103.954
10 0 59835   8142.000000  0   -2381915.523  -4657250.057  -4490336.488
10 0 59835   8262.000000  0   -2809053.644  -5040660.854  -3770926.976
10 0 59835   8382.000000  0   -3193168.079  -5329219.024  -2985402.191
10 0 59835   8502.000000  0   -3525814.453  -5518628.480  -2147478.981
10 0 59835   8622.000000  0   -3799378.601  -5606460.977  -1271827.853
10 0 59835   8742.000000  0   -4007249.973  -5592192.914   -373814.724
10 0 59835   8862.000000  0   -4143977.128  -5477204.047    530773.867
10 0 59835   8982.000000  0   -4205401.588  -5264737.759   1426015.927
10 0 59835   9102.000000  0   -4188766.250  -4959822.887   2296143.874
10 0 59835   9222.000000  0   -4092794.776  -4569158.858   3125831.138
99
